[
    {
        "Altitude(m)": 617710.6297967421,
        "Argument of Periapsis(deg)": 0.0,
        "Eccentricity": 0.0,
        "Inclination(deg)": 60.0,
        "Latitude(deg)": -41.10263343780998,
        "Longitude(deg)": 74.96669405523947,
        "Mean Anomaly(deg)": -49.09089999999997,
        "RAAN(deg)": 205.0,
        "Satellite Name": "Test1 921",
        "Satellite Number": 921,
        "Semi-Major Axis(m)": 6980739.136638005,
        "Time(s)": 0
    },
    {
        "Altitude(m)": 617517.9280775959,
        "Argument of Periapsis(deg)": 0.00010418945913296404,
        "Eccentricity": 0.0,
        "Inclination(deg)": 60.0,
        "Latitude(deg)": -40.63683974972782,
        "Longitude(deg)": 75.46348641905242,
        "Mean Anomaly(deg)": -48.470793854538115,
        "RAAN(deg)": 204.99957995086024,
        "Satellite Name": "Test1 921",
        "Satellite Number": 921,
        "Semi-Major Axis(m)": 6980739.136638005,
        "Time(s)": 10
    }
]